STARLINK-30079          
1 56706U 23067U   26067.97519937  .00000722  00000+0  68530-4 0  9999
2 56706  43.0031 278.2482 0001339 262.3232  97.7458 15.02541537155550
PICO-02A021             
1 60538U 24149BY  26068.15390193  .00008488  00000+0  64833-3 0  9999
2 60538  97.6823 147.9080 0004195   9.5557 350.5747 15.02201963 84718
